NORAD_CAT_ID,OBJECT_NAME,OBJECT_TYPE,EPOCH,MEAN_MOTION,ECCENTRICITY,INCLINATION,RA_OF_ASC_NODE,ARG_OF_PERICENTER,MEAN_ANOMALY,BSTAR,MEAN_MOTION_DOT,MEAN_MOTION_DDOT,TLE_LINE0,TLE_LINE1,TLE_LINE2,SEMIMAJOR_AXIS,PERIOD,APOGEE,PERIGEE,DECAYED
55435.0,STARLINK-5626,PAYLOAD,2023-06-02 08:54:33,14.98331723,0.0003444,69.998,134.3244,268.4519,91.6246,3.1697e-07,-8.9e-07,0.0,0 STARLINK-5626,1 55435U 23014AW  23153.37122266 -.00000089  00000-0  31697-6 0  9995,2 55435  69.9980 134.3244 0003444 268.4519  91.6246 14.98331723 19588,6950.188,96.107,574.446,569.659,0.0
55435.0,STARLINK-5626,PAYLOAD,2023-06-03 02:32:02,14.98329778,0.0003406,69.9981,132.4728,268.5335,91.5434,-1.0924e-05,-2.23e-06,0.0,0 STARLINK-5626,1 55435U 23014AW  23154.10558390 -.00000223  00000-0 -10924-4 0  9997,2 55435  69.9981 132.4728 0003406 268.5335  91.5434 14.98329778 18753,6950.194,96.107,574.426,569.691,0.0
55435.0,STARLINK-5626,PAYLOAD,2023-06-03 08:56:34,14.98331479,0.0003399,69.9981,131.7994,268.6583,91.4186,4.0307e-06,-4.5e-07,0.0,0 STARLINK-5626,1 55435U 23014AW  23154.37262224 -.00000045  00000-0  40307-5 0  9994,2 55435  69.9981 131.7994 0003399 268.6583  91.4186 14.98331479 19730,6950.188,96.107,574.416,569.691,0.0
55435.0,STARLINK-5626,PAYLOAD,2023-06-04 02:34:03,14.98328944,0.0003347,69.9984,129.9479,269.2946,90.7829,-8.6605e-06,-1.96e-06,0.0,0 STARLINK-5626,1 55435U 23014AW  23155.10698420 -.00000196  00000-0 -86605-5 0  9996,2 55435  69.9984 129.9479 0003347 269.2946  90.7829 14.98328944 18900,6950.196,96.107,574.387,569.735,0.0
55435.0,STARLINK-5626,PAYLOAD,2023-06-04 08:58:35,14.98330501,0.0003291,69.9985,129.2748,268.8605,91.2177,1.7473e-05,1.15e-06,0.0,0 STARLINK-5626,1 55435U 23014AW  23155.37402248  .00000115  00000-0  17473-4 0  9991,2 55435  69.9985 129.2748 0003291 268.8605  91.2177 14.98330501 19880,6950.191,96.107,574.344,569.769,0.0
55435.0,STARLINK-5626,PAYLOAD,2023-06-04 15:23:07,14.98328977,0.0003282,69.9986,128.6015,269.2304,90.8479,5.4658e-06,-2.8e-07,0.0,0 STARLINK-5626,1 55435U 23014AW  23155.64106370 -.00000028  00000-0  54658-5 0  9999,2 55435  69.9986 128.6015 0003282 269.2304  90.8479 14.98328977 19921,6950.196,96.107,574.342,569.78,0.0
55435.0,STARLINK-5626,PAYLOAD,2023-06-05 04:12:12,14.98330951,0.000328,69.9986,127.2549,269.0094,91.0689,1.772e-05,1.18e-06,0.0,0 STARLINK-5626,1 55435U 23014AW  23156.17514196  .00000118  00000-0  17720-4 0  9994,2 55435  69.9986 127.2549 0003280 269.0094  91.0689 14.98330951 19066,6950.19,96.107,574.335,569.775,0.0
55435.0,STARLINK-5626,PAYLOAD,2023-06-05 07:24:28,14.98331934,0.0003261,69.9986,126.9183,269.1703,90.9082,2.9539e-05,2.59e-06,0.0,0 STARLINK-5626,1 55435U 23014AW  23156.30866090  .00000259  00000-0  29539-4 0  9999,2 55435  69.9986 126.9183 0003261 269.1703  90.9082 14.98331934 20028,6950.187,96.107,574.318,569.785,0.0
55435.0,STARLINK-5626,PAYLOAD,2023-06-05 21:49:41,14.9832595,0.0003237,69.9987,125.4034,269.4121,90.6668,-4.4433e-05,-6.23e-06,0.0,0 STARLINK-5626,1 55435U 23014AW  23156.90950681 -.00000623  00000-0 -44433-4 0  9992,2 55435  69.9987 125.4034 0003237 269.4121  90.6668 14.98325950 20116,6950.205,96.107,574.32,569.821,0.0
55435.0,STARLINK-5626,PAYLOAD,2023-06-06 01:01:57,14.98325828,0.0003241,69.9987,125.0667,269.3653,90.7134,-4.4527e-05,-6.24e-06,0.0,0 STARLINK-5626,1 55435U 23014AW  23157.04302710 -.00000624  00000-0 -44527-4 0  9997,2 55435  69.9987 125.0667 0003241 269.3653  90.7134 14.98325828 19197,6950.206,96.107,574.323,569.818,0.0
55435.0,STARLINK-5626,PAYLOAD,2023-06-06 07:26:29,14.98328809,0.000322,69.9986,124.3934,269.3259,90.7531,-8.3186e-06,-1.92e-06,0.0,0 STARLINK-5626,1 55435U 23014AW  23157.31006455 -.00000192  00000-0 -83186-5 0  9999,2 55435  69.9986 124.3934 0003220 269.3259  90.7531 14.98328809 20177,6950.197,96.107,574.3,569.824,0.0
55435.0,STARLINK-5626,PAYLOAD,2023-06-06 23:27:50,14.98330486,0.0003224,69.9986,122.71,269.3487,90.7302,4.4699e-06,-4e-07,0.0,0 STARLINK-5626,1 55435U 23014AW  23157.97766323 -.00000040  00000-0  44699-5 0  9995,2 55435  69.9986 122.7100 0003224 269.3487  90.7302 14.98330486 19337,6950.191,96.107,574.297,569.816,0.0
55435.0,STARLINK-5626,PAYLOAD,2023-06-07 07:28:30,14.98334047,0.0003193,69.9986,121.8682,269.0668,91.0125,3.6298e-05,3.4e-06,0.0,0 STARLINK-5626,1 55435U 23014AW  23158.31145975  .00000340  00000-0  36298-4 0  9995,2 55435  69.9986 121.8682 0003193 269.0668  91.0125 14.98334047 20320,6950.18,96.107,574.265,569.826,0.0
55435.0,STARLINK-5626,PAYLOAD,2023-06-07 21:53:42,14.9832813,0.0003156,69.9985,120.353,269.0539,91.0258,3.9961e-05,3.84e-06,0.0,0 STARLINK-5626,1 55435U 23014AW  23158.91230294  .00000384  00000-0  39961-4 0  9998,2 55435  69.9985 120.3530 0003156 269.0539  91.0258 14.98328130 20414,6950.199,96.107,574.257,569.87,0.0
55435.0,STARLINK-5626,PAYLOAD,2023-06-08 01:05:59,14.98327678,0.0003164,69.9985,120.0164,269.0303,91.0493,3.3782e-05,3.1e-06,0.0,0 STARLINK-5626,1 55435U 23014AW  23159.04582349  .00000310  00000-0  33782-4 0  9998,2 55435  69.9985 120.0164 0003164 269.0303  91.0493 14.98327678 19495,6950.2,96.107,574.264,569.866,0.0
55435.0,STARLINK-5626,PAYLOAD,2023-06-08 07:30:31,14.98330447,0.0003147,69.9986,119.343,268.9527,91.1272,4.3972e-05,4.32e-06,0.0,0 STARLINK-5626,1 55435U 23014AW  23159.31286150  .00000432  00000-0  43972-4 0  9996,2 55435  69.9986 119.3430 0003147 268.9527  91.1272 14.98330447 20474,6950.192,96.107,574.244,569.869,0.0
55435.0,STARLINK-5626,PAYLOAD,2023-06-09 07:32:31,14.98334299,0.0003049,69.9989,116.818,269.5862,90.4947,2.3831e-05,1.91e-06,0.0,0 STARLINK-5626,1 55435U 23014AW  23160.31425857  .00000191  00000-0  23831-4 0  9991,2 55435  69.9989 116.8180 0003049 269.5862  90.4947 14.98334299 19682,6950.18,96.107,574.164,569.925,0.0
55435.0,STARLINK-5626,PAYLOAD,2023-06-10 02:46:09,14.98329477,0.0002972,69.9993,114.7983,270.8346,89.2473,-1.2765e-05,-2.45e-06,0.0,0 STARLINK-5626,1 55435U 23014AW  23161.11538222 -.00000245  00000-0 -12765-4 0  9997,2 55435  69.9993 114.7983 0002972 270.8346  89.2473 14.98329477 19807,6950.195,96.107,574.125,569.994,0.0
55435.0,STARLINK-5626,PAYLOAD,2023-06-10 05:58:25,14.9832857,0.000291,69.9994,114.4619,269.3801,90.7024,-9.7071e-07,-1.05e-06,0.0,0 STARLINK-5626,1 55435U 23014AW  23161.24890261 -.00000105  00000-0 -97071-6 0  9995,2 55435  69.9994 114.4619 0002910 269.3801  90.7024 14.98328570 20761,6950.197,96.107,574.085,570.04,0.0
55435.0,STARLINK-5626,PAYLOAD,2023-06-10 15:35:13,14.98330028,0.0002959,69.9992,113.452,269.8304,90.2516,-5.1426e-06,-1.54e-06,0.0,0 STARLINK-5626,1 55435U 23014AW  23161.64946165 -.00000154  00000-0 -51426-5 0  9991,2 55435  69.9992 113.4520 0002959 269.8304  90.2516 14.98330028 20824,6950.193,96.107,574.114,570.001,0.0
55435.0,STARLINK-5626,PAYLOAD,2023-06-11 02:48:10,14.98328558,0.0003004,69.9992,112.2734,269.9805,90.101,-4.0179e-05,-5.72e-06,0.0,0 STARLINK-5626,1 55435U 23014AW  23162.11678361 -.00000572  00000-0 -40179-4 0  9990,2 55435  69.9992 112.2734 0003004 269.9805  90.1010 14.98328558 19952,6950.197,96.107,574.15,569.975,0.0
55435.0,STARLINK-5626,PAYLOAD,2023-06-11 14:01:06,14.98330296,0.0003034,69.9992,111.0954,271.8851,88.196,4.4314e-07,-8.8e-07,0.0,0 STARLINK-5626,1 55435U 23014AW  23162.58410139 -.00000088  00000-0  44314-6 0  9996,2 55435  69.9992 111.0954 0003034 271.8851  88.1960 14.98330296 20965,6950.192,96.107,574.166,569.948,0.0
55435.0,STARLINK-5626,PAYLOAD,2023-06-11 20:25:38,14.98331274,0.0003081,69.9991,110.422,271.9226,88.1581,3.4879e-05,3.23e-06,0.0,0 STARLINK-5626,1 55435U 23014AW  23162.85113978  .00000323  00000-0  34879-4 0  9991,2 55435  69.9991 110.4220 0003081 271.9226  88.1581 14.98331274 21004,6950.189,96.107,574.195,569.913,0.0
55435.0,STARLINK-5626,PAYLOAD,2023-06-12 06:02:26,14.98333797,0.000306,69.9992,109.4123,272.0828,87.9981,5.977e-05,6.2e-06,0.0,0 STARLINK-5626,1 55435U 23014AW  23163.25169684  .00000620  00000-0  59770-4 0  9998,2 55435  69.9992 109.4123 0003060 272.0828  87.9981 14.98333797 20127,6950.181,96.107,574.173,569.919,0.0
55435.0,STARLINK-5626,PAYLOAD,2023-06-12 14:03:07,14.98328306,0.000289,69.9999,108.5712,268.9311,91.1517,7.7891e-06,0.0,0.0,0 STARLINK-5626,1 55435U 23014AW  23163.58550139 -.00000000  00000-0  77891-5 0  9991,2 55435  69.9999 108.5712 0002890 268.9311  91.1517 14.98328306 20176,6950.198,96.107,574.072,570.055,0.0
55435.0,STARLINK-5626,PAYLOAD,2023-06-13 06:04:28,14.98326566,0.0002827,70.0002,106.887,265.6761,94.4075,2.7449e-05,2.35e-06,0.0,0 STARLINK-5626,1 55435U 23014AW  23164.25310245  .00000235  00000-0  27449-4 0  9990,2 55435  70.0002 106.8870 0002827 265.6761  94.4075 14.98326566 21210,6950.204,96.107,574.033,570.104,0.0
55435.0,STARLINK-5626,PAYLOAD,2023-06-14 02:54:12,14.98331958,0.0002946,69.9996,104.6994,266.1398,93.9425,6.9373e-06,-1e-07,0.0,0 STARLINK-5626,1 55435U 23014AW  23165.12097865 -.00000010  00000-0  69373-5 0  9992,2 55435  69.9996 104.6994 0002946 266.1398  93.9425 14.98331958 20400,6950.187,96.107,574.099,570.004,0.0
55435.0,STARLINK-5626,PAYLOAD,2023-06-14 06:06:49,14.98075203,0.0008178,70.0009,104.3656,132.3508,227.8345,-0.002863,-0.00033888,0.0,0 STARLINK-5626,1 55435U 23014AW  23165.25474463 -.00033888  00000-0 -28630-2 0  9997,2 55435  70.0009 104.3656 0008178 132.3508 227.8345 14.98075203 20429,6950.981,96.123,578.53,567.161,0.0
55435.0,STARLINK-5626,PAYLOAD,2023-06-14 22:00:00,14.98349554,0.0003164,70.0008,102.6923,268.1592,62.6625,-0.0023634,-0.00028194,0.0,0 STARLINK-5626,1 55435U 23014AW  23165.91667824 -.00028194  00000-0 -23634-2 0  9998,2 55435  70.0008 102.6923 0003164 268.1592  62.6625 14.98349554 20527,6950.132,96.106,574.196,569.798,0.0
55435.0,STARLINK-5626,PAYLOAD,2023-06-15 06:08:29,14.98327497,0.0003085,69.9991,101.8376,268.7517,91.3289,1.2147e-05,5.2e-07,0.0,0 STARLINK-5626,1 55435U 23014AW  23166.25590255  .00000052  00000-0  12147-4 0  9999,2 55435  69.9991 101.8376 0003085 268.7517  91.3289 14.98327497 21510,6950.201,96.107,574.21,569.921,0.0
